[{"OBJECT_NAME":"STARLINK-32331","OBJECT_ID":"2024-191C","EPOCH":"2026-03-09T22:27:56.403072","MEAN_MOTION":15.2757183,"ECCENTRICITY":8.83e-5,"INCLINATION":42.9982,"RA_OF_ASC_NODE":156.6184,"ARG_OF_PERICENTER":290.7319,"MEAN_ANOMALY":69.3438,"EPHEMERIS_TYPE":0,"CLASSIFICATION_TYPE":"U","NORAD_CAT_ID":61623,"ELEMENT_SET_NO":999,"REV_AT_EPOCH":7753,"BSTAR":3.1885278e-5,"MEAN_MOTION_DOT":6.15e-6,"MEAN_MOTION_DDOT":0},{"OBJECT_NAME":"PEGASUS R\/B","OBJECT_ID":"2007-015B","EPOCH":"2026-03-09T10:58:33.801024","MEAN_MOTION":15.26741121,"ECCENTRICITY":0.00105976,"INCLINATION":97.9168,"RA_OF_ASC_NODE":31.3919,"ARG_OF_PERICENTER":317.6341,"MEAN_ANOMALY":42.4077,"EPHEMERIS_TYPE":0,"CLASSIFICATION_TYPE":"U","NORAD_CAT_ID":31305,"ELEMENT_SET_NO":999,"REV_AT_EPOCH":3383,"BSTAR":0.00044093522,"MEAN_MOTION_DOT":0.00011537,"MEAN_MOTION_DDOT":0}]
